[{"OBJECT_NAME":"ONEWEB-0668","OBJECT_ID":"2023-068B","EPOCH":"2025-09-03T00:51:59.994720","MEAN_MOTION":13.16591335,"ECCENTRICITY":0.00020434,"INCLINATION":87.9011,"RA_OF_ASC_NODE":285.9938,"ARG_OF_PERICENTER":108.8879,"MEAN_ANOMALY":251.2474,"EPHEMERIS_TYPE":0,"CLASSIFICATION_TYPE":"U","NORAD_CAT_ID":56711,"ELEMENT_SET_NO":999,"REV_AT_EPOCH":11399,"BSTAR":0.00011507045,"MEAN_MOTION_DOT":5.7e-7,"MEAN_MOTION_DDOT":0},{"OBJECT_NAME":"ONEWEB-0676","OBJECT_ID":"2023-068C","EPOCH":"2025-09-03T05:51:48.638016","MEAN_MOTION":13.16593586,"ECCENTRICITY":0.00021348,"INCLINATION":87.8998,"RA_OF_ASC_NODE":285.9726,"ARG_OF_PERICENTER":85.6874,"MEAN_ANOMALY":274.4501,"EPHEMERIS_TYPE":0,"CLASSIFICATION_TYPE":"U","NORAD_CAT_ID":56712,"ELEMENT_SET_NO":999,"REV_AT_EPOCH":11394,"BSTAR":5.3340604e-5,"MEAN_MOTION_DOT":3.3e-7,"MEAN_MOTION_DDOT":0},{"OBJECT_NAME":"ONEWEB-0677","OBJECT_ID":"2023-068D","EPOCH":"2025-09-03T05:16:47.357184","MEAN_MOTION":13.20770054,"ECCENTRICITY":0.00021398,"INCLINATION":87.9284,"RA_OF_ASC_NODE":331.6347,"ARG_OF_PERICENTER":96.6418,"MEAN_ANOMALY":263.4959,"EPHEMERIS_TYPE":0,"CLASSIFICATION_TYPE":"U","NORAD_CAT_ID":56713,"ELEMENT_SET_NO":999,"REV_AT_EPOCH":11192,"BSTAR":-4.7354571e-5,"MEAN_MOTION_DOT":-6.0e-8,"MEAN_MOTION_DDOT":0},{"OBJECT_NAME":"ONEWEB-0678","OBJECT_ID":"2023-068E","EPOCH":"2025-09-02T17:44:39.688800","MEAN_MOTION":13.15548595,"ECCENTRICITY":0.00016484,"INCLINATION":87.9062,"RA_OF_ASC_NODE":316.5328,"ARG_OF_PERICENTER":87.6879,"MEAN_ANOMALY":272.4441,"EPHEMERIS_TYPE":0,"CLASSIFICATION_TYPE":"U","NORAD_CAT_ID":56714,"ELEMENT_SET_NO":999,"REV_AT_EPOCH":11149,"BSTAR":0.00021128493,"MEAN_MOTION_DOT":9.2e-7,"MEAN_MOTION_DDOT":0},{"OBJECT_NAME":"ONEWEB-0679","OBJECT_ID":"2023-068F","EPOCH":"2025-09-03T01:28:30.629568","MEAN_MOTION":13.16594515,"ECCENTRICITY":0.00024523,"INCLINATION":87.9,"RA_OF_ASC_NODE":286.0014,"ARG_OF_PERICENTER":97.9274,"MEAN_ANOMALY":262.2135,"EPHEMERIS_TYPE":0,"CLASSIFICATION_TYPE":"U","NORAD_CAT_ID":56715,"ELEMENT_SET_NO":999,"REV_AT_EPOCH":11394,"BSTAR":0.00012520064,"MEAN_MOTION_DOT":6.1e-7,"MEAN_MOTION_DDOT":0},{"OBJECT_NAME":"ONEWEB-0680","OBJECT_ID":"2023-068G","EPOCH":"2025-09-03T03:10:21.908928","MEAN_MOTION":13.21824653,"ECCENTRICITY":0.00022659,"INCLINATION":87.9223,"RA_OF_ASC_NODE":301.245,"ARG_OF_PERICENTER":110.5524,"MEAN_ANOMALY":249.5853,"EPHEMERIS_TYPE":0,"CLASSIFICATION_TYPE":"U","NORAD_CAT_ID":56716,"ELEMENT_SET_NO":999,"REV_AT_EPOCH":11317,"BSTAR":0.00013043939,"MEAN_MOTION_DOT":6.7e-7,"MEAN_MOTION_DDOT":0},{"OBJECT_NAME":"ONEWEB-0681","OBJECT_ID":"2023-068H","EPOCH":"2025-09-02T21:11:35.814624","MEAN_MOTION":13.21825913,"ECCENTRICITY":0.00028663,"INCLINATION":87.9226,"RA_OF_ASC_NODE":301.3114,"ARG_OF_PERICENTER":81.7622,"MEAN_ANOMALY":278.3837,"EPHEMERIS_TYPE":0,"CLASSIFICATION_TYPE":"U","NORAD_CAT_ID":56717,"ELEMENT_SET_NO":999,"REV_AT_EPOCH":11313,"BSTAR":0.00011127164,"MEAN_MOTION_DOT":5.9e-7,"MEAN_MOTION_DDOT":0},{"OBJECT_NAME":"ONEWEB-0682","OBJECT_ID":"2023-068J","EPOCH":"2025-09-03T03:29:54.755232","MEAN_MOTION":13.15547919,"ECCENTRICITY":0.00022646,"INCLINATION":87.9047,"RA_OF_ASC_NODE":316.4735,"ARG_OF_PERICENTER":108.8739,"MEAN_ANOMALY":251.2637,"EPHEMERIS_TYPE":0,"CLASSIFICATION_TYPE":"U","NORAD_CAT_ID":56718,"ELEMENT_SET_NO":999,"REV_AT_EPOCH":11171,"BSTAR":-0.00014928937,"MEAN_MOTION_DOT":-4.3e-7,"MEAN_MOTION_DDOT":0},{"OBJECT_NAME":"ONEWEB-0683","OBJECT_ID":"2023-068K","EPOCH":"2025-09-03T04:00:43.831872","MEAN_MOTION":13.15548465,"ECCENTRICITY":0.00020195,"INCLINATION":87.9055,"RA_OF_ASC_NODE":316.4464,"ARG_OF_PERICENTER":105.4657,"MEAN_ANOMALY":254.6697,"EPHEMERIS_TYPE":0,"CLASSIFICATION_TYPE":"U","NORAD_CAT_ID":56719,"ELEMENT_SET_NO":999,"REV_AT_EPOCH":11168,"BSTAR":-1.3098582e-5,"MEAN_MOTION_DOT":8.0e-8,"MEAN_MOTION_DDOT":0},{"OBJECT_NAME":"ONEWEB-0684","OBJECT_ID":"2023-068L","EPOCH":"2025-09-03T04:12:07.706880","MEAN_MOTION":13.15548919,"ECCENTRICITY":5.435e-5,"INCLINATION":87.9037,"RA_OF_ASC_NODE":316.4452,"ARG_OF_PERICENTER":68.2314,"MEAN_ANOMALY":291.8874,"EPHEMERIS_TYPE":0,"CLASSIFICATION_TYPE":"U","NORAD_CAT_ID":56720,"ELEMENT_SET_NO":999,"REV_AT_EPOCH":11151,"BSTAR":0.00022201604,"MEAN_MOTION_DOT":9.6e-7,"MEAN_MOTION_DDOT":0},{"OBJECT_NAME":"ONEWEB-0686","OBJECT_ID":"2023-068M","EPOCH":"2025-09-03T01:13:40.119456","MEAN_MOTION":13.16596103,"ECCENTRICITY":0.00017984,"INCLINATION":87.8989,"RA_OF_ASC_NODE":286.0341,"ARG_OF_PERICENTER":103.1296,"MEAN_ANOMALY":257.0036,"EPHEMERIS_TYPE":0,"CLASSIFICATION_TYPE":"U","NORAD_CAT_ID":56721,"ELEMENT_SET_NO":999,"REV_AT_EPOCH":11393,"BSTAR":-4.166598e-5,"MEAN_MOTION_DOT":-3.0e-8,"MEAN_MOTION_DDOT":0},{"OBJECT_NAME":"ONEWEB-0694","OBJECT_ID":"2023-068N","EPOCH":"2025-09-03T02:15:15.655680","MEAN_MOTION":13.1659405,"ECCENTRICITY":0.00021125,"INCLINATION":87.9004,"RA_OF_ASC_NODE":285.9534,"ARG_OF_PERICENTER":104.6876,"MEAN_ANOMALY":255.4489,"EPHEMERIS_TYPE":0,"CLASSIFICATION_TYPE":"U","NORAD_CAT_ID":56722,"ELEMENT_SET_NO":999,"REV_AT_EPOCH":11399,"BSTAR":0.00020245119,"MEAN_MOTION_DOT":9.0e-7,"MEAN_MOTION_DDOT":0},{"OBJECT_NAME":"ONEWEB-0696","OBJECT_ID":"2023-068P","EPOCH":"2025-09-03T03:10:31.251360","MEAN_MOTION":13.15549072,"ECCENTRICITY":0.00016792,"INCLINATION":87.9054,"RA_OF_ASC_NODE":316.5062,"ARG_OF_PERICENTER":90.9077,"MEAN_ANOMALY":269.2246,"EPHEMERIS_TYPE":0,"CLASSIFICATION_TYPE":"U","NORAD_CAT_ID":56723,"ELEMENT_SET_NO":999,"REV_AT_EPOCH":11162,"BSTAR":4.6277755e-5,"MEAN_MOTION_DOT":3.0e-7,"MEAN_MOTION_DDOT":0},{"OBJECT_NAME":"ONEWEB-0703","OBJECT_ID":"2023-068Q","EPOCH":"2025-09-03T03:24:12.652704","MEAN_MOTION":13.15548912,"ECCENTRICITY":0.00019641,"INCLINATION":87.9046,"RA_OF_ASC_NODE":316.4893,"ARG_OF_PERICENTER":64.3371,"MEAN_ANOMALY":295.7962,"EPHEMERIS_TYPE":0,"CLASSIFICATION_TYPE":"U","NORAD_CAT_ID":56724,"ELEMENT_SET_NO":999,"REV_AT_EPOCH":11151,"BSTAR":-9.8299028e-5,"MEAN_MOTION_DOT":-2.4e-7,"MEAN_MOTION_DDOT":0},{"OBJECT_NAME":"ONEWEB-0721","OBJECT_ID":"2023-068R","EPOCH":"2025-09-03T03:53:25.202400","MEAN_MOTION":13.2244325,"ECCENTRICITY":0.0001921,"INCLINATION":86.6873,"RA_OF_ASC_NODE":177.0094,"ARG_OF_PERICENTER":75.2281,"MEAN_ANOMALY":284.9065,"EPHEMERIS_TYPE":0,"CLASSIFICATION_TYPE":"U","NORAD_CAT_ID":56725,"ELEMENT_SET_NO":999,"REV_AT_EPOCH":12000,"BSTAR":7.7273417e-5,"MEAN_MOTION_DOT":4.7e-7,"MEAN_MOTION_DDOT":0},{"OBJECT_NAME":"ONEWEB-0015","OBJECT_ID":"2024-188A","EPOCH":"2025-09-03T01:15:03.795264","MEAN_MOTION":13.11418528,"ECCENTRICITY":0.00023093,"INCLINATION":87.878,"RA_OF_ASC_NODE":78.3136,"ARG_OF_PERICENTER":87.3809,"MEAN_ANOMALY":272.7584,"EPHEMERIS_TYPE":0,"CLASSIFICATION_TYPE":"U","NORAD_CAT_ID":61594,"ELEMENT_SET_NO":999,"REV_AT_EPOCH":4682,"BSTAR":0.0010671616,"MEAN_MOTION_DOT":3.91e-6,"MEAN_MOTION_DDOT":0},{"OBJECT_NAME":"ONEWEB-0687","OBJECT_ID":"2024-188B","EPOCH":"2025-09-03T04:36:33.653088","MEAN_MOTION":13.17650605,"ECCENTRICITY":0.0002172,"INCLINATION":87.9026,"RA_OF_ASC_NODE":63.0061,"ARG_OF_PERICENTER":104.2305,"MEAN_ANOMALY":255.9068,"EPHEMERIS_TYPE":0,"CLASSIFICATION_TYPE":"U","NORAD_CAT_ID":61595,"ELEMENT_SET_NO":999,"REV_AT_EPOCH":4810,"BSTAR":0.00023718887,"MEAN_MOTION_DOT":1.05e-6,"MEAN_MOTION_DDOT":0}]
