ONEWEB-0668             
1 56711U 23068B   25246.03611105  .00000057  00000+0  11507-3 0  9993
2 56711  87.9011 285.9938 0002043 108.8879 251.2474 13.16591335113997
ONEWEB-0676             
1 56712U 23068C   25246.24431294  .00000033  00000+0  53341-4 0  9993
2 56712  87.8998 285.9726 0002134  85.6874 274.4501 13.16593586113947
ONEWEB-0677             
1 56713U 23068D   25246.21999256 -.00000006  00000+0 -47355-4 0  9998
2 56713  87.9284 331.6347 0002139  96.6418 263.4959 13.20770054111929
ONEWEB-0678             
1 56714U 23068E   25245.73934825  .00000092  00000+0  21128-3 0  9998
2 56714  87.9062 316.5328 0001648  87.6879 272.4441 13.15548595111495
ONEWEB-0679             
1 56715U 23068F   25246.06146562  .00000061  00000+0  12520-3 0  9991
2 56715  87.9000 286.0014 0002452  97.9274 262.2135 13.16594515113941
ONEWEB-0680             
1 56716U 23068G   25246.13219802  .00000067  00000+0  13044-3 0  9996
2 56716  87.9223 301.2450 0002265 110.5524 249.5853 13.21824653113170
ONEWEB-0681             
1 56717U 23068H   25245.88305341  .00000059  00000+0  11127-3 0  9993
2 56717  87.9226 301.3114 0002866  81.7622 278.3837 13.21825913113135
ONEWEB-0682             
1 56718U 23068J   25246.14577263 -.00000043  00000+0 -14929-3 0  9996
2 56718  87.9047 316.4735 0002264 108.8739 251.2637 13.15547919111715
ONEWEB-0683             
1 56719U 23068K   25246.16717398  .00000008  00000+0 -13099-4 0  9992
2 56719  87.9055 316.4464 0002019 105.4657 254.6697 13.15548465111680
ONEWEB-0684             
1 56720U 23068L   25246.17508920  .00000096  00000+0  22202-3 0  9995
2 56720  87.9037 316.4452 0000543  68.2314 291.8874 13.15548919111511
ONEWEB-0686             
1 56721U 23068M   25246.05115879 -.00000003  00000+0 -41666-4 0  9996
2 56721  87.8989 286.0341 0001798 103.1296 257.0036 13.16596103113938
ONEWEB-0694             
1 56722U 23068N   25246.09393120  .00000090  00000+0  20245-3 0  9991
2 56722  87.9004 285.9534 0002112 104.6876 255.4489 13.16594050113990
ONEWEB-0696             
1 56723U 23068P   25246.13230615  .00000030  00000+0  46278-4 0  9995
2 56723  87.9054 316.5062 0001679  90.9077 269.2246 13.15549072111625
ONEWEB-0703             
1 56724U 23068Q   25246.14181311 -.00000024  00000+0 -98299-4 0  9990
2 56724  87.9046 316.4893 0001964  64.3371 295.7962 13.15548912111516
ONEWEB-0721             
1 56725U 23068R   25246.16209725  .00000047  00000+0  77273-4 0  9995
2 56725  86.6873 177.0094 0001921  75.2281 284.9065 13.22443250120004
ONEWEB-0015             
1 61594U 24188A   25246.05212726  .00000391  00000+0  10672-2 0  9992
2 61594  87.8780  78.3136 0002309  87.3809 272.7584 13.11418528 46821
ONEWEB-0687             
1 61595U 24188B   25246.19205617  .00000105  00000+0  23719-3 0  9999
2 61595  87.9026  63.0061 0002172 104.2305 255.9068 13.17650605 48105
